NORAD_CAT_ID,OBJECT_NAME,OBJECT_TYPE,EPOCH,MEAN_MOTION,ECCENTRICITY,INCLINATION,RA_OF_ASC_NODE,ARG_OF_PERICENTER,MEAN_ANOMALY,BSTAR,MEAN_MOTION_DOT,MEAN_MOTION_DDOT,TLE_LINE0,TLE_LINE1,TLE_LINE2,SEMIMAJOR_AXIS,PERIOD,APOGEE,PERIGEE,DECAYED
55404.0,STARLINK-5607,PAYLOAD,2024-05-17 04:07:53,14.98339641,0.0003502,69.9994,292.4911,274.0604,86.0155,2.606e-05,2.18e-06,0.0,0 STARLINK-5607,1 55404U 23014P   24138.17214747  .00000218  00000-0  26060-4 0  9998,2 55404  69.9994 292.4911 0003502 274.0604  86.0155 14.98339641 72021,6950.163,96.106,574.462,569.594,0.0
55404.0,STARLINK-5607,PAYLOAD,2024-05-17 12:08:35,14.98324951,0.0002607,69.9992,291.6486,273.0411,87.0449,-0.00011406,-1.453e-05,0.0,0 STARLINK-5607,1 55404U 23014P   24138.50596285 -.00001453  00000-0 -11406-3 0  9996,2 55404  69.9992 291.6486 0002607 273.0411  87.0449 14.98324951 72077,6950.209,96.107,573.885,570.262,0.0
55404.0,STARLINK-5607,PAYLOAD,2024-05-17 16:56:59,14.98326423,0.0002889,69.9987,291.1424,267.3888,92.694,-0.00014742,-1.851e-05,0.0,0 STARLINK-5607,1 55404U 23014P   24138.70624253 -.00001851  00000-0 -14742-3 0  9993,2 55404  69.9987 291.1424 0002889 267.3888  92.6940 14.98326423 73046,6950.204,96.107,574.077,570.061,0.0
55404.0,STARLINK-5607,PAYLOAD,2024-05-18 12:10:34,14.98338623,0.0003058,69.9989,289.1189,269.7027,90.3781,4.3367e-05,4.25e-06,0.0,0 STARLINK-5607,1 55404U 23014P   24139.50734776  .00000425  00000-0  43367-4 0  9994,2 55404  69.9989 289.1189 0003058 269.7027  90.3781 14.98338623 72225,6950.166,96.106,574.157,569.906,0.0
55404.0,STARLINK-5607,PAYLOAD,2024-05-18 13:46:42,14.98340437,0.0002927,69.999,288.9519,268.7016,91.3807,5.6602e-05,5.83e-06,0.0,0 STARLINK-5607,1 55404U 23014P   24139.57410578  .00000583  00000-0  56602-4 0  9993,2 55404  69.9990 288.9519 0002927 268.7016  91.3807 14.98340437 73173,6950.161,96.106,574.06,569.991,0.0
55404.0,STARLINK-5607,PAYLOAD,2024-05-18 20:11:13,14.98361884,0.0003215,69.9993,288.2814,268.8602,91.2188,0.000207,2.38e-05,0.0,0 STARLINK-5607,1 55404U 23014P   24139.84112468  .00002380  00000-0  20700-3 0  9996,2 55404  69.9993 288.2814 0003215 268.8602  91.2188 14.98361884 72270,6950.094,96.105,574.194,569.725,0.0
55404.0,STARLINK-5607,PAYLOAD,2024-05-19 02:35:47,14.98326319,0.0002957,69.998,287.6082,275.3593,84.7229,5.3343e-05,5.43e-06,0.0,0 STARLINK-5607,1 55404U 23014P   24140.10818853  .00000543  00000-0  53343-4 0  9997,2 55404  69.9980 287.6082 0002957 275.3593  84.7229 14.98326319 72312,6950.204,96.107,574.124,570.014,0.0
55404.0,STARLINK-5607,PAYLOAD,2024-05-19 13:48:45,14.98308197,0.0002857,69.9982,286.4283,276.269,83.8143,-0.00012582,-1.593e-05,0.0,0 STARLINK-5607,1 55404U 23014P   24140.57552888 -.00001593  00000-0 -12582-3 0  9998,2 55404  69.9982 286.4283 0002857 276.2690  83.8143 14.98308197 73322,6950.26,96.108,574.111,570.14,0.0
55404.0,STARLINK-5607,PAYLOAD,2024-05-19 20:13:17,14.98313517,0.0002877,69.9991,285.7573,267.4175,92.6655,-3.3385e-05,-4.91e-06,0.0,0 STARLINK-5607,1 55404U 23014P   24140.84256561 -.00000491  00000-0 -33385-4 0  9998,2 55404  69.9991 285.7573 0002877 267.4175  92.6655 14.98313517 72426,6950.244,96.108,574.108,570.109,0.0
55404.0,STARLINK-5607,PAYLOAD,2024-05-20 12:14:36,14.98344769,0.0003034,69.9997,284.075,266.1122,93.969,-0.00014883,-1.869e-05,0.0,0 STARLINK-5607,1 55404U 23014P   24141.51014858 -.00001869  00000-0 -14883-3 0  9995,2 55404  69.9997 284.0750 0003034 266.1122  93.9690 14.98344769 72522,6950.147,96.106,574.121,569.904,0.0
55404.0,STARLINK-5607,PAYLOAD,2024-05-20 13:50:44,14.98344847,0.0003064,69.9996,283.9063,267.269,92.8118,-0.00014394,-1.811e-05,0.0,0 STARLINK-5607,1 55404U 23014P   24141.57690791 -.00001811  00000-0 -14394-3 0  9991,2 55404  69.9996 283.9063 0003064 267.2690  92.8118 14.98344847 73476,6950.147,96.106,574.142,569.882,0.0
55404.0,STARLINK-5607,PAYLOAD,2024-05-20 18:39:08,14.9834931,0.0002995,69.9999,283.4016,265.1803,94.9014,-7.6328e-05,-1.004e-05,0.0,0 STARLINK-5607,1 55404U 23014P   24141.77718150 -.00001004  00000-0 -76328-4 0  9993,2 55404  69.9999 283.4016 0002995 265.1803  94.9014 14.98349310 72564,6950.133,96.106,574.08,569.917,0.0
55404.0,STARLINK-5607,PAYLOAD,2024-05-21 12:16:38,14.98318624,0.000272,70.0017,281.5517,252.9524,107.1337,0.00017066,1.943e-05,0.0,0 STARLINK-5607,1 55404U 23014P   24142.51155419  .00001943  00000-0  17066-3 0  9992,2 55404  70.0017 281.5517 0002720 252.9524 107.1337 14.98318624 72674,6950.228,96.108,573.984,570.203,0.0
55404.0,STARLINK-5607,PAYLOAD,2024-05-21 13:52:46,14.98317201,0.0002762,70.0014,281.3821,256.1793,103.9059,0.00016295,1.851e-05,0.0,0 STARLINK-5607,1 55404U 23014P   24142.57831496  .00001851  00000-0  16295-3 0  9995,2 55404  70.0014 281.3821 0002762 256.1793 103.9059 14.98317201 73628,6950.232,96.108,574.017,570.178,0.0
55404.0,STARLINK-5607,PAYLOAD,2024-05-21 18:41:10,14.98318757,0.0002685,70.001,280.8782,259.2905,100.7951,5.7006e-05,5.87e-06,0.0,0 STARLINK-5607,1 55404U 23014P   24142.77859866  .00000587  00000-0  57006-4 0  9999,2 55404  70.0010 280.8782 0002685 259.2905 100.7951 14.98318757 73653,6950.228,96.108,573.959,570.227,0.0
55404.0,STARLINK-5607,PAYLOAD,2024-05-22 12:18:39,14.98330387,0.0002742,70.0008,279.0252,253.9775,106.1082,-4.2915e-05,-6.05e-06,0.0,0 STARLINK-5607,1 55404U 23014P   24143.51295593 -.00000605  00000-0 -42915-4 0  9999,2 55404  70.0008 279.0252 0002742 253.9775 106.1082 14.98330387 72828,6950.192,96.107,573.962,570.151,0.0
55404.0,STARLINK-5607,PAYLOAD,2024-05-23 12:20:40,14.98327959,0.0002947,69.9999,276.4992,265.1111,94.9712,6.2436e-05,6.52e-06,0.0,0 STARLINK-5607,1 55404U 23014P   24144.51435472  .00000652  00000-0  62436-4 0  9992,2 55404  69.9999 276.4992 0002947 265.1111  94.9712 14.98327959 72973,6950.199,96.107,574.112,570.016,0.0
55404.0,STARLINK-5607,PAYLOAD,2024-05-23 13:56:48,14.98327857,0.0002952,70.0,276.3309,265.1365,94.9457,5.9771e-05,6.2e-06,0.0,0 STARLINK-5607,1 55404U 23014P   24144.58111495  .00000620  00000-0  59771-4 0  9998,2 55404  70.0000 276.3309 0002952 265.1365  94.9457 14.98327857 73926,6950.2,96.107,574.116,570.013,0.0
55404.0,STARLINK-5607,PAYLOAD,2024-05-23 18:45:12,14.98331629,0.00029,70.0001,275.8264,264.2246,95.8583,0.00010042,1.105e-05,0.0,0 STARLINK-5607,1 55404U 23014P   24144.78139146  .00001105  00000-0  10042-3 0  9999,2 55404  70.0001 275.8264 0002900 264.2246  95.8583 14.98331629 73957,6950.188,96.107,574.068,570.037,0.0
55404.0,STARLINK-5607,PAYLOAD,2024-05-24 12:22:40,14.98336267,0.0002978,69.9998,273.9737,265.3774,94.7045,6.3892e-05,6.7e-06,0.0,0 STARLINK-5607,1 55404U 23014P   24145.51574799  .00000670  00000-0  63892-4 0  9996,2 55404  69.9998 273.9737 0002978 265.3774  94.7045 14.98336267 73129,6950.174,96.107,574.108,569.969,0.0
55404.0,STARLINK-5607,PAYLOAD,2024-05-24 13:58:48,14.9833628,0.000298,69.9997,273.8054,265.3012,94.7807,6.3021e-05,6.59e-06,0.0,0 STARLINK-5607,1 55404U 23014P   24145.58250774  .00000659  00000-0  63021-4 0  9998,2 55404  69.9997 273.8054 0002980 265.3012  94.7807 14.98336280 74073,6950.173,96.107,574.11,569.967,0.0
55404.0,STARLINK-5607,PAYLOAD,2024-05-24 18:47:13,14.98293627,0.0002592,70.0,273.3002,266.5004,93.5858,0.00098228,0.00011636,0.0,0 STARLINK-5607,1 55404U 23014P   24145.78279229  .00011636  00000-0  98228-3 0  9999,2 55404  70.0000 273.3002 0002592 266.5004  93.5858 14.98293627 73161,6950.305,96.109,573.972,570.369,0.0
55404.0,STARLINK-5607,PAYLOAD,2024-05-25 01:11:45,14.98332675,0.0003147,69.9996,272.6263,267.7847,92.2952,8.2086e-06,5e-08,0.0,0 STARLINK-5607,1 55404U 23014P   24146.04982847  .00000005  00000-0  82086-5 0  9991,2 55404  69.9996 272.6263 0003147 267.7847  92.2952 14.98332675 73201,6950.185,96.107,574.237,569.862,0.0
55404.0,STARLINK-5607,PAYLOAD,2024-05-25 12:24:42,14.98324221,0.0002882,70.0002,271.4505,253.6708,106.4134,-9.2198e-05,-1.193e-05,0.0,0 STARLINK-5607,1 55404U 23014P   24146.51715719 -.00001193  00000-0 -92198-4 0  9990,2 55404  70.0002 271.4505 0002882 253.6708 106.4134 14.98324221 73278,6950.211,96.107,574.079,570.073,0.0
55404.0,STARLINK-5607,PAYLOAD,2024-05-25 14:00:50,14.98324224,0.0002953,70.0005,271.2833,249.4112,110.6731,-7.8897e-05,-1.034e-05,0.0,0 STARLINK-5607,1 55404U 23014P   24146.58391745 -.00001034  00000-0 -78897-4 0  9990,2 55404  70.0005 271.2833 0002953 249.4112 110.6731 14.98324224 74223,6950.211,96.107,574.128,570.023,0.0
55404.0,STARLINK-5607,PAYLOAD,2024-05-26 01:13:48,14.98298639,0.0003616,69.9986,270.1016,263.8194,96.2553,-0.00040603,-4.931e-05,0.0,0 STARLINK-5607,1 55404U 23014P   24147.05125933 -.00004931  00000-0 -40603-3 0  9999,2 55404  69.9986 270.1016 0003616 263.8194  96.2553 14.98298639 73350,6950.29,96.109,574.668,569.642,0.0
55404.0,STARLINK-5607,PAYLOAD,2024-05-26 12:26:42,14.98334626,0.0003059,70.0,268.9252,256.8827,103.1991,3.0689e-05,2.73e-06,0.0,0 STARLINK-5607,1 55404U 23014P   24147.51854809  .00000273  00000-0  30689-4 0  9998,2 55404  70.0000 268.9252 0003059 256.8827 103.1991 14.98334626 73422,6950.179,96.107,574.17,569.918,0.0
55404.0,STARLINK-5607,PAYLOAD,2024-05-26 14:02:50,14.98332525,0.0003208,69.9994,268.7549,265.5786,94.5007,-1.7658e-05,-3.04e-06,0.0,0 STARLINK-5607,1 55404U 23014P   24147.58531083 -.00000304  00000-0 -17658-4 0  9999,2 55404  69.9994 268.7549 0003208 265.5786  94.5007 14.98332525 74377,6950.185,96.107,574.28,569.82,0.0
55404.0,STARLINK-5607,PAYLOAD,2024-05-26 17:15:06,14.98336257,0.0003086,69.9996,268.4183,264.0086,96.0721,6.1731e-06,-1.9e-07,0.0,0 STARLINK-5607,1 55404U 23014P   24147.71882757 -.00000019  00000-0  61731-5 0  9995,2 55404  69.9996 268.4183 0003086 264.0086  96.0721 14.98336257 74399,6950.174,96.107,574.183,569.894,0.0
55404.0,STARLINK-5607,PAYLOAD,2024-05-27 01:15:45,14.98390124,0.0003855,69.9998,267.5808,250.6359,109.4383,-0.0011012,-0.00013229,0.0,0 STARLINK-5607,1 55404U 23014P   24148.05261164 -.00013229  00000-0 -11012-2 0  9998,2 55404  69.9998 267.5808 0003855 250.6359 109.4383 14.98390124 73501,6950.007,96.103,574.551,569.193,0.0
